[{"OBJECT_NAME":"STARLINK-6076","OBJECT_ID":"2023-046H","EPOCH":"2026-03-09T22:00:01.999584","MEAN_MOTION":15.05917917,"ECCENTRICITY":0.0002036,"INCLINATION":43.0003,"RA_OF_ASC_NODE":157.7686,"ARG_OF_PERICENTER":277.7227,"MEAN_ANOMALY":151.3929,"EPHEMERIS_TYPE":0,"CLASSIFICATION_TYPE":"U","NORAD_CAT_ID":56100,"ELEMENT_SET_NO":999,"REV_AT_EPOCH":573,"BSTAR":0.00021322188,"MEAN_MOTION_DOT":2.944e-5,"MEAN_MOTION_DDOT":0},{"OBJECT_NAME":"OBJECT H","OBJECT_ID":"2022-023H","EPOCH":"2026-03-09T22:57:41.313888","MEAN_MOTION":15.21889274,"ECCENTRICITY":0.00933376,"INCLINATION":63.6345,"RA_OF_ASC_NODE":356.5929,"ARG_OF_PERICENTER":305.1945,"MEAN_ANOMALY":54.0457,"EPHEMERIS_TYPE":0,"CLASSIFICATION_TYPE":"U","NORAD_CAT_ID":51953,"ELEMENT_SET_NO":999,"REV_AT_EPOCH":22114,"BSTAR":0.00043867493,"MEAN_MOTION_DOT":0.00011084,"MEAN_MOTION_DDOT":0}]
